TOMORROW-S1             
1 60479U 24149M   26193.07270792  .00004675  00000+0  14883-3 0  9999
2 60479  97.3748 273.4708 0003839 137.8440 222.3098 15.33064544105903
FLOCK 4BE-18            
1 60480U 24149N   26192.80097847  .00008312  00000+0  19276-3 0  9992
2 60480  97.3728 276.8003 0004912 153.7878 206.3619 15.42653469106107
FLOCK 4BE-7             
1 60481U 24149P   26192.76642868  .00014227  00000+0  34275-3 0  9995
2 60481  97.3757 276.0611 0004226 159.1704 200.9716 15.41356726106038
TOMORROW-S2             
1 60485U 24149T   26192.77624186  .00004747  00000+0  15088-3 0  9990
2 60485  97.3820 273.6882 0003567 156.8906 203.2497 15.33108702105852
FLOCK 4BE-36            
1 60486U 24149U   26193.21308419  .00009739  00000+0  21938-3 0  9996
2 60486  97.3744 277.9533 0004488 159.7568 200.3859 15.43474712106216
FLOCK 4BE-25            
1 60487U 24149V   26192.79275714  .00008664  00000+0  22298-3 0  9996
2 60487  97.3799 276.1193 0003519 149.7719 210.3730 15.39482396106021
FLOCK 4BE-31            
1 60488U 24149W   26193.21999516  .00012672  00000+0  26988-3 0  9992
2 60488  97.3798 278.8936 0004126 164.2293 195.9085 15.45069958106246
FLOCK 4BE-20            
1 60489U 24149X   26192.76826243  .00008677  00000+0  22866-3 0  9999
2 60489  97.3697 274.9117 0004740 161.5503 198.5915 15.38748408105997
FLOCK 4BE-23            
1 60490U 24149Y   26192.76515466  .00008134  00000+0  21764-3 0  9997
2 60490  97.3793 275.2968 0004245 164.9328 195.2044 15.38303174105978
FLOCK 4BE-17            
1 60492U 24149AA  26192.71500300  .00009349  00000+0  23253-3 0  9999
2 60492  97.3773 276.2883 0004145 155.3826 204.7619 15.40497548106035
NUSAT-50 (NANCY ROMAN)  
1 60493U 24149AB  26192.75835772  .00005574  00000+0  19287-3 0  9996
2 60493  97.3788 273.8483 0004797 109.7842 250.3916 15.30280412105883
FLOCK 4BE-22            
1 60494U 24149AC  26192.80414380  .00009725  00000+0  23075-3 0  9993
2 60494  97.3734 276.6096 0004478 163.9303 196.2087 15.41913954106093
FLOCK 4BE-34            
1 60495U 24149AD  26192.75673340  .00009242  00000+0  21968-3 0  9994
2 60495  97.3780 277.3986 0004513 170.4162 189.7172 15.41878550106114
TYCHE                   
1 60496U 24149AE  26192.98925493  .00002649  00000+0  10644-3 0  9992
2 60496  97.3752 270.4720 0002792 174.3441 185.7830 15.25814146105685
FLOCK 4BE-32            
1 60497U 24149AF  26192.77331231  .00011644  00000+0  26600-3 0  9995
2 60497  97.3718 276.9792 0004597 167.9865 192.1493 15.43005273106121
NUSAT-48 (HENRIETTA LE*)
1 60498U 24149AG  26192.68188339  .00004991  00000+0  17322-3 0  9993
2 60498  97.3922 274.0580 0004479 168.9688 191.1651 15.30236606105885
NUSAT-49 (KLARA DAN VO*)
1 60500U 24149AJ  26192.78920024  .00005194  00000+0  17958-3 0  9994
2 60500  97.3781 273.9113 0002126 172.2733 187.8541 15.30346061105896
FLOCK 4BE-11            
1 60501U 24149AK  26191.19944043  .00014279  00000+0  31750-3 0  9996
2 60501  97.3696 275.6385 0004566 172.5870 187.5446 15.43759592105901
YAM-7                   
1 60504U 24149AN  26192.74713715  .00004381  00000+0  14365-3 0  9997
2 60504  97.3783 272.9007 0003319 179.0948 181.0301 15.32151431105810
FLOCK 4BE-24            
1 60505U 24149AP  26190.53571544  .00015684  00000+0  34635-3 0  9995
2 60505  97.3710 275.2320 0004496 186.8328 173.2860 15.43944372105819
LUR-1                   
1 60506U 24149AQ  26192.76507999  .00003934  00000+0  13635-3 0  9998
2 60506  97.3737 271.4189 0003637 194.1994 165.9145 15.30417906105736
TANAGER-1               
1 60507U 24149AR  26193.23246483  .00000202  00000+0  63026-5 0  9996
2 60507  97.2303 287.3864 0001965 177.3872 182.7387 15.43907540106908
EAGLEEYE                
1 60508U 24149AS  26192.78330051  .00087498  00000+0  55803-3 0  9995
2 60508  97.3753 287.5653 0003603 184.5090 175.6143 15.76132224106805
FLOCK 4BE-29            
1 60509U 24149AT  26192.79792032  .00027166  00000+0  57137-3 0  9996
2 60509  97.3808 279.0564 0003046 182.4298 177.6937 15.45278458106216
TRANSPORTER-11 OBJECT AU
1 60510U 24149AU  26192.02599866  .00009571  00000+0  23494-3 0  9993
2 60510  97.3730 275.9465 0003856 181.4585 178.6651 15.40895030105987
FLOCK 4BE-2             
1 60511U 24149AV  26193.04148874  .00044830  00000+0  65247-3 0  9995
2 60511  97.3833 281.0962 0005144 180.9826 179.1420 15.55608654106369
FLOCK 4BE-13            
1 60512U 24149AW  26192.81184954  .00008636  00000+0  20085-3 0  9994
2 60512  97.3718 277.4895 0004867 165.8986 194.2398 15.42552459106163
